{"type": "FeatureCollection", "features": [ {"type": "Feature", "properties": {"norad_id": 30829, "name": "FENGYUN 1C DEB", "group": "fengyun-1c-debris", "lat": -70.25430941786713, "lon": 19.676155535577156, "alt_km": 845.9929855563623, "timestamp": "2025-12-27T22:26:48.882057+00:00", "meta": {"OBJECT_NAME": "FENGYUN 1C DEB", "OBJECT_ID": "1999-025AVP", "EPOCH": "2025-12-26T22:55:19.503840", "MEAN_MOTION": 14.08675637, "ECCENTRICITY": 0.0034796, "INCLINATION": 98.7782, "RA_OF_ASC_NODE": 353.225, "ARG_OF_PERICENTER": 293.9132, "MEAN_ANOMALY": 65.8394, "EPHEMERIS_TYPE": 0, "CLASSIFICATION_TYPE": "U", "NORAD_CAT_ID": 30829, "ELEMENT_SET_NO": 999, "REV_AT_EPOCH": 96633, "BSTAR": 0.00042323, "MEAN_MOTION_DOT": 6.89e-06, "MEAN_MOTION_DDOT": 0}, "tle": {"line1": "1 30829U 99025AVP 25360.95508685  .00000689  00000+0  42323-3 0  9998", "line2": "2 30829  98.7782 353.2250 0034796 293.9132  65.8394 14.08675637966332"}}, "geometry": {"type": "Point", "coordinates": [19.676155535577156, -70.25430941786713]}}, {"type": "Feature", "properties": {"norad_id": 30830, "name": "FENGYUN 1C DEB", "group": "fengyun-1c-debris", "lat": -23.825903070832304, "lon": -6.1709580865355775, "alt_km": 879.4487651386053, "timestamp": "2025-12-27T22:26:48.882067+00:00", "meta": {"OBJECT_NAME": "FENGYUN 1C DEB", "OBJECT_ID": "1999-025AVQ", "EPOCH": "2025-12-26T22:53:48.907392", "MEAN_MOTION": 14.12242909, "ECCENTRICITY": 0.0031371, "INCLINATION": 98.7304, "RA_OF_ASC_NODE": 348.9826, "ARG_OF_PERICENTER": 148.4546, "MEAN_ANOMALY": 241.6385, "EPHEMERIS_TYPE": 0, "CLASSIFICATION_TYPE": "U", "NORAD_CAT_ID": 30830, "ELEMENT_SET_NO": 999, "REV_AT_EPOCH": 96800, "BSTAR": 0.00027712, "MEAN_MOTION_DOT": 4.69e-06, "MEAN_MOTION_DDOT": 0}, "tle": {"line1": "1 30830U 99025AVQ 25360.95403828  .00000469  00000+0  27712-3 0  9994", "line2": "2 30830  98.7304 348.9826 0031371 148.4546 241.6385 14.12242909968000"}}, "geometry": {"type": "Point", "coordinates": [-6.1709580865355775, -23.825903070832304]}}, {"type": "Feature", "properties": {"norad_id": 30831, "name": "FENGYUN 1C DEB", "group": "fengyun-1c-debris", "lat": 48.18280046896159, "lon": -13.604031437973918, "alt_km": 814.0200787898757, "timestamp": "2025-12-27T22:26:48.882077+00:00", "meta": {"OBJECT_NAME": "FENGYUN 1C DEB", "OBJECT_ID": "1999-025AVR", "EPOCH": "2025-12-26T05:34:05.943072", "MEAN_MOTION": 14.31116177, "ECCENTRICITY": 0.0055085, "INCLINATION": 99.3287, "RA_OF_ASC_NODE": 153.9814, "ARG_OF_PERICENTER": 355.2233, "MEAN_ANOMALY": 4.8415, "EPHEMERIS_TYPE": 0, "CLASSIFICATION_TYPE": "U", "NORAD_CAT_ID": 30831, "ELEMENT_SET_NO": 999, "REV_AT_EPOCH": 65443, "BSTAR": 0.00042706, "MEAN_MOTION_DOT": 1.095e-05, "MEAN_MOTION_DDOT": 0}, "tle": {"line1": "1 30831U 99025AVR 25360.23201323  .00001095  00000+0  42706-3 0  9998", "line2": "2 30831  99.3287 153.9814 0055085 355.2233   4.8415 14.31116177654438"}}, "geometry": {"type": "Point", "coordinates": [-13.604031437973918, 48.18280046896159]}}, {"type": "Feature", "properties": {"norad_id": 30833, "name": "FENGYUN 1C DEB", "group": "fengyun-1c-debris", "lat": -79.16204596083149, "lon": -144.99479241868193, "alt_km": 826.7778279816221, "timestamp": "2025-12-27T22:26:48.882087+00:00", "meta": {"OBJECT_NAME": "FENGYUN 1C DEB", "OBJECT_ID": "1999-025AVT", "EPOCH": "2025-12-27T06:01:09.228000", "MEAN_MOTION": 14.26797747, "ECCENTRICITY": 0.0033097, "INCLINATION": 99.8453, "RA_OF_ASC_NODE": 149.1326, "ARG_OF_PERICENTER": 140.5164, "MEAN_ANOMALY": 219.8433, "EPHEMERIS_TYPE": 0, "CLASSIFICATION_TYPE": "U", "NORAD_CAT_ID": 30833, "ELEMENT_SET_NO": 999, "REV_AT_EPOCH": 64618, "BSTAR": 0.00063819, "MEAN_MOTION_DOT": 1.502e-05, "MEAN_MOTION_DDOT": 0}, "tle": {"line1": "1 30833U 99025AVT 25361.25080125  .00001502  00000+0  63819-3 0  9999", "line2": "2 30833  99.8453 149.1326 0033097 140.5164 219.8433 14.26797747646185"}}, "geometry": {"type": "Point", "coordinates": [-144.99479241868193, -79.16204596083149]}}, {"type": "Feature", "properties": {"norad_id": 30836, "name": "FENGYUN 1C DEB", "group": "fengyun-1c-debris", "lat": -27.10295978781773, "lon": 38.735021483368996, "alt_km": 870.8729107648451, "timestamp": "2025-12-27T22:26:48.882097+00:00", "meta": {"OBJECT_NAME": "FENGYUN 1C DEB", "OBJECT_ID": "1999-025AVW", "EPOCH": "2025-12-21T01:36:21.545856", "MEAN_MOTION": 14.11944491, "ECCENTRICITY": 0.00260217, "INCLINATION": 98.7439, "RA_OF_ASC_NODE": 27.5216, "ARG_OF_PERICENTER": 220.4586, "MEAN_ANOMALY": 139.4651, "EPHEMERIS_TYPE": 0, "CLASSIFICATION_TYPE": "U", "NORAD_CAT_ID": 30836, "ELEMENT_SET_NO": 999, "REV_AT_EPOCH": 62121, "BSTAR": 0.00026112112, "MEAN_MOTION_DOT": 4.36e-06, "MEAN_MOTION_DDOT": 0}, "tle": {"line1": "1 30836U 99025AVW 25355.06691604  .00000436  00000+0  26112-3 0  9994", "line2": "2 30836  98.7439  27.5216 0026021 220.4586 139.4651 14.11944491621212"}}, "geometry": {"type": "Point", "coordinates": [38.735021483368996, -27.10295978781773]}}, {"type": "Feature", "properties": {"norad_id": 30837, "name": "FENGYUN 1C DEB", "group": "fengyun-1c-debris", "lat": 22.3611623345886, "lon": 171.3478512433182, "alt_km": 833.7012135639516, "timestamp": "2025-12-27T22:26:48.882107+00:00", "meta": {"OBJECT_NAME": "FENGYUN 1C DEB", "OBJECT_ID": "1999-025AVX", "EPOCH": "2025-12-27T12:05:56.483808", "MEAN_MOTION": 14.1454012, "ECCENTRICITY": 0.0033365, "INCLINATION": 98.68, "RA_OF_ASC_NODE": 347.3258, "ARG_OF_PERICENTER": 92.2978, "MEAN_ANOMALY": 30.2197, "EPHEMERIS_TYPE": 0, "CLASSIFICATION_TYPE": "U", "NORAD_CAT_ID": 30837, "ELEMENT_SET_NO": 999, "REV_AT_EPOCH": 97027, "BSTAR": 0.00035511, "MEAN_MOTION_DOT": 6.43e-06, "MEAN_MOTION_DDOT": 0}, "tle": {"line1": "1 30837U 99025AVX 25361.50412597  .00000643  00000+0  35511-3 0  9996", "line2": "2 30837  98.6800 347.3258 0033365  92.2978  30.2197 14.14540120970272"}}, "geometry": {"type": "Point", "coordinates": [171.3478512433182, 22.3611623345886]}}, {"type": "Feature", "properties": {"norad_id": 30838, "name": "FENGYUN 1C DEB", "group": "fengyun-1c-debris", "lat": -4.80650144119589, "lon": 96.0867175070834, "alt_km": 728.5874998393583, "timestamp": "2025-12-27T22:26:48.882117+00:00", "meta": {"OBJECT_NAME": "FENGYUN 1C DEB", "OBJECT_ID": "1999-025AVY", "EPOCH": "2025-12-27T09:59:27.727296", "MEAN_MOTION": 14.47991672, "ECCENTRICITY": 0.0035509, "INCLINATION": 99.0423, "RA_OF_ASC_NODE": 276.2992, "ARG_OF_PERICENTER": 112.5256, "MEAN_ANOMALY": 247.9699, "EPHEMERIS_TYPE": 0, "CLASSIFICATION_TYPE": "U", "NORAD_CAT_ID": 30838, "ELEMENT_SET_NO": 999, "REV_AT_EPOCH": 97526, "BSTAR": 0.0027208, "MEAN_MOTION_DOT": 0.00010146, "MEAN_MOTION_DDOT": 0}, "tle": {"line1": "1 30838U 99025AVY 25361.41629314  .00010146  00000+0  27208-2 0  9996", "line2": "2 30838  99.0423 276.2992 0035509 112.5256 247.9699 14.47991672975267"}}, "geometry": {"type": "Point", "coordinates": [96.0867175070834, -4.80650144119589]}}, {"type": "Feature", "properties": {"norad_id": 30840, "name": "FENGYUN 1C DEB", "group": "fengyun-1c-debris", "lat": -44.371693923732394, "lon": 20.762716043146504, "alt_km": 544.2130397641995, "timestamp": "2025-12-27T22:26:48.882127+00:00", "meta": {"OBJECT_NAME": "FENGYUN 1C DEB", "OBJECT_ID": "1999-025AWA", "EPOCH": "2025-12-26T12:07:59.151072", "MEAN_MOTION": 14.61247002, "ECCENTRICITY": 0.0216339, "INCLINATION": 98.0229, "RA_OF_ASC_NODE": 11.4441, "ARG_OF_PERICENTER": 327.3141, "MEAN_ANOMALY": 31.4823, "EPHEMERIS_TYPE": 0, "CLASSIFICATION_TYPE": "U", "NORAD_CAT_ID": 30840, "ELEMENT_SET_NO": 999, "REV_AT_EPOCH": 73332, "BSTAR": 0.0008072, "MEAN_MOTION_DOT": 5.501e-05, "MEAN_MOTION_DDOT": 0}, "tle": {"line1": "1 30840U 99025AWA 25360.50554573  .00005501  00000+0  80720-3 0  9990", "line2": "2 30840  98.0229  11.4441 0216339 327.3141  31.4823 14.61247002733323"}}, "geometry": {"type": "Point", "coordinates": [20.762716043146504, -44.371693923732394]}}, {"type": "Feature", "properties": {"norad_id": 30843, "name": "FENGYUN 1C DEB", "group": "fengyun-1c-debris", "lat": 27.11340481197479, "lon": 69.80181797537156, "alt_km": 642.5974773018706, "timestamp": "2025-12-27T22:26:48.882137+00:00", "meta": {"OBJECT_NAME": "FENGYUN 1C DEB", "OBJECT_ID": "1999-025AWD", "EPOCH": "2025-12-24T03:23:32.017920", "MEAN_MOTION": 14.52491521, "ECCENTRICITY": 0.01488463, "INCLINATION": 98.841, "RA_OF_ASC_NODE": 70.3765, "ARG_OF_PERICENTER": 85.3289, "MEAN_ANOMALY": 276.4887, "EPHEMERIS_TYPE": 0, "CLASSIFICATION_TYPE": "U", "NORAD_CAT_ID": 30843, "ELEMENT_SET_NO": 999, "REV_AT_EPOCH": 99490, "BSTAR": 0.00012943843, "MEAN_MOTION_DOT": 5.54e-06, "MEAN_MOTION_DDOT": 0}, "tle": {"line1": "1 30843U 99025AWD 25358.14134280  .00000554  00000+0  12944-3 0  9995", "line2": "2 30843  98.8410  70.3765 0148846  85.3289 276.4887 14.52491521994901"}}, "geometry": {"type": "Point", "coordinates": [69.80181797537156, 27.11340481197479]}}, {"type": "Feature", "properties": {"norad_id": 30845, "name": "FENGYUN 1C DEB", "group": "fengyun-1c-debris", "lat": 37.90739282985282, "lon": -172.68739221869905, "alt_km": 963.5761910400406, "timestamp": "2025-12-27T22:26:48.882147+00:00", "meta": {"OBJECT_NAME": "FENGYUN 1C DEB", "OBJECT_ID": "1999-025AWF", "EPOCH": "2025-12-27T12:03:11.248128", "MEAN_MOTION": 13.76868435, "ECCENTRICITY": 0.0192248, "INCLINATION": 98.3795, "RA_OF_ASC_NODE": 0.3402, "ARG_OF_PERICENTER": 230.3177, "MEAN_ANOMALY": 287.9468, "EPHEMERIS_TYPE": 0, "CLASSIFICATION_TYPE": "U", "NORAD_CAT_ID": 30845, "ELEMENT_SET_NO": 999, "REV_AT_EPOCH": 94446, "BSTAR": 0.00032003, "MEAN_MOTION_DOT": 3.24e-06, "MEAN_MOTION_DDOT": 0}, "tle": {"line1": "1 30845U 99025AWF 25361.50221352  .00000324  00000+0  32003-3 0  9991", "line2": "2 30845  98.3795   0.3402 0192248 230.3177 287.9468 13.76868435944463"}}, "geometry": {"type": "Point", "coordinates": [-172.68739221869905, 37.90739282985282]}}]}